#aV2022  7  8  0  0  0.00000000     288 DD+AD WGS84 FIT  NGA
## 2217 432000.00000000   300.00000000 59768 0.0000000000000
+   32     1  2  3  4  5  6  7  8  9 10 11 12 13 14 15 16 17
+         18 19 20 21 22 23 24 25 26 27 28 29 30 31 32  0  0
+          0  0  0  0  0  0  0  0  0  0  0  0  0  0  0  0  0
+          0  0  0  0  0  0  0  0  0  0  0  0  0  0  0  0  0
+          0  0  0  0  0  0  0  0  0  0  0  0  0  0  0  0  0
++         2  2  2  2  2  2  2  2  2  2  2  2  2  2  2  2  2
++         2  2  2  2  2  2  2  2  2  2  2  2  2  2  2  0  0
++         0  0  0  0  0  0  0  0  0  0  0  0  0  0  0  0  0
++         0  0  0  0  0  0  0  0  0  0  0  0  0  0  0  0  0
++         0  0  0  0  0  0  0  0  0  0  0  0  0  0  0  0  0
%c cc cc ccc ccc cccc cccc cccc cccc ccccc ccccc ccccc ccccc
%c cc cc ccc ccc cccc cccc cccc cccc ccccc ccccc ccccc ccccc
%f  0.0000000  0.000000000  0.00000000000  0.000000000000000
%f  0.0000000  0.000000000  0.00000000000  0.000000000000000
%i    0    0    0    0      0      0      0      0         0
%i    0    0    0    0      0      0      0      0         0
/*      NGA, ST. LOUIS,MO.                                  
/*   EPHEMERIS COMPUTED FROM 2 DAYS OF DATA                 
/*   EPOCHA v7 SMOOTHER                                     
/*   G2139 IERS2010 SATIGS SATAPC                           
*  2022  7  8  6 40  0.00000000
P  1 -12749.519269 -13301.472168 -19567.658526    325.682446                    
V  1  24012.974439     52.586314 -15598.389917     -0.075370                    
P  2 -10876.981717  14567.146822  20069.302550   -651.757218                    
V  2 -24024.022884    555.497564 -13724.697686      0.005672                    
P  3 -12505.000165 -23496.357897   -673.264159   -301.310586                    
V  3   2337.498637   -485.146158 -31970.146137     -0.104865                    
P  4  -3801.988257 -18309.624694  18834.690933   -148.443796                    
V  4  14227.589607 -19293.107557 -15977.666644      0.044351                    
P  5   2910.171274  22608.491039  13340.465133    -88.344489                    
V  5 -11016.126325 -13516.078988  25129.182856     -0.014031                    
P  6 -23517.743410   6500.385021  10649.590803    375.851659                    
V  6 -13329.332259  -1962.162842 -28320.846276      0.161687                    
P  7 -24817.327317  -6446.666515   8259.568896    320.003049                    
V  7   9858.353690  -2221.305176  28876.620611     -0.012005                    
P  8   2058.125971 -22606.387597 -13533.488883    -75.320086                    
V  8  10619.737107 -13806.516239  25092.316166     -0.015328                    
P  9 -12666.916238  -8672.315475  21606.589059   -321.178649                    
V  9  13876.617679 -23880.360293  -1479.482702      0.037298                    
P 10  16665.342187   1215.886925 -20569.811282   -483.989688                    
V 10  12216.699351  23343.350155  10908.490568     -0.139357                    
P 11 -12856.055414  12659.955356  19476.958357    -11.284916                    
V 11 -24591.914000  -3010.036184 -14295.516883      0.011480                    
P 12   8867.074761  24879.704011  -3577.594738   -243.072468                    
V 12  -3957.646413  -2787.084350 -31438.910989     -0.059040                    
P 13 -12091.340014  22578.185894  -6825.874756    344.249130                    
V 13  -7314.717714   5027.164495  30449.367406      0.072441                    
P 14 -17337.866691  -2812.400954 -19948.668108   -111.983392                    
V 14 -10427.110988 -23120.310079  12221.037043      0.001718                    
P 15   1010.808287  22918.377518 -13534.658535    -47.144155                    
V 15  -9446.988994  14107.045481  24239.446257      0.030176                    
P 16   3944.830865 -19696.407705  16863.317702   -514.050308                    
V 16  10748.886306  19412.132155  20283.305993     -0.023092                    
P 17 -18936.259876   8090.141342 -16371.994364    634.316009                    
V 17  10897.320857 -18662.319407 -21217.892319      0.045484                    
P 18  24681.770225   6226.184964   7788.746010    119.750663                    
V 18  -9935.109327   1855.536342  29839.844807     -0.112975                    
P 19 -19667.256596  14636.130594 -10176.444434    180.866668                    
V 19   5880.389021 -11352.544201 -28627.157581      0.050302                    
P 20  -6275.417267  15909.721779  20377.045882    505.003980                    
V 20 -16730.960372 -19757.430787  10047.291387     -0.031585                    
P 21  -3047.609835 -14733.906055 -21292.262802    161.185031                    
V 21  28456.595000  -1754.595973  -2096.377558     -0.001151                    
P 22  18519.739292 -17395.361980  -7000.659915    288.702924                    
V 22  -3203.670519   9382.155025 -30174.730760      0.064309                    
P 23  18747.436666  11648.909112 -14867.523521    -31.927727                    
V 23   8033.730078  17085.854069  23425.060461     -0.017748                    
P 24   8956.984648  14712.004629 -20612.345042    202.447008                    
V 24 -25399.000544   2442.029832  -9017.801120     -0.095602                    
P 25  17218.881581  18464.828174   8388.237010    346.616606                    
V 25   3151.917764  10825.173513 -29030.401424      0.045103                    
P 26  10915.480026 -11706.582817  21076.165670    216.975061                    
V 26  15069.488789  22524.738794   4997.703349      0.022125                    
P 27  12213.303229 -23264.352921  -2134.898411    220.084052                    
V 27   3656.954784   -698.377224  32105.896063      0.012737                    
P 28 -13170.840760   6844.701650 -21522.808123    332.126823                    
V 28 -11466.795662 -26122.386010  -1035.083229      0.046609                    
P 29  11764.695335   8922.789145  22024.528535   -531.519181                    
V 29 -16251.418930  22842.382906   -645.008834     -0.036544                    
P 30 -26605.519470    646.860598  -2063.564892   -533.476565                    
V 30  -2604.952477  -3472.555059  30875.089451     -0.009301                    
P 31  22389.617415  -7806.266906  12294.742966   -184.894067                    
V 31  15559.577261   2822.974781 -25801.586114     -0.015031                    
P 32  18724.817207 -10977.377758 -15028.436294   -170.686808                    
V 32  -7921.996233  17884.724087 -22895.152254     -0.098461                    
EOF
